NORAD_CAT_ID,OBJECT_NAME,OBJECT_TYPE,EPOCH,MEAN_MOTION,ECCENTRICITY,INCLINATION,RA_OF_ASC_NODE,ARG_OF_PERICENTER,MEAN_ANOMALY,BSTAR,MEAN_MOTION_DOT,MEAN_MOTION_DDOT,TLE_LINE0,TLE_LINE1,TLE_LINE2,SEMIMAJOR_AXIS,PERIOD,APOGEE,PERIGEE,DECAYED
49739.0,STARLINK-3155,PAYLOAD,2022-01-23 14:00:01,15.08830851,0.0002423,53.195,80.4105,29.3226,103.3054,0.0022345,0.00035446,0.0,0 STARLINK-3155,1 49739U 21115R   22023.58334491  .00035446  00000-0  22345-2 0  9998,2 49739  53.1950  80.4105 0002423  29.3226 103.3054 15.08830851  3592,6917.908,95.438,541.45,538.097,0.0
49739.0,STARLINK-3155,PAYLOAD,2022-01-23 22:00:00,15.08834785,0.0002217,53.1952,78.9116,30.1171,114.1199,-0.00045691,-7.552e-05,0.0,0 STARLINK-3155,1 49739U 21115R   22023.91667824 -.00007552  00000-0 -45691-3 0  9993,2 49739  53.1952  78.9116 0002217  30.1171 114.1199 15.08834785  3598,6917.896,95.438,541.295,538.2280000000002,0.0
49739.0,STARLINK-3155,PAYLOAD,2022-01-24 06:00:02,15.08850016,0.0002259,53.1954,77.4145,31.7816,124.1012,-0.001127,-0.00018186,0.0,0 STARLINK-3155,1 49739U 21115R   22024.25002315 -.00018186  00000-0 -11270-2 0  9999,2 49739  53.1954  77.4145 0002259  31.7816 124.1012 15.08850016  9221,6917.85,95.437,541.278,538.1519999999998,0.0
49739.0,STARLINK-3155,PAYLOAD,2022-01-24 14:00:01,15.08817306,0.0002468,53.1955,75.9188,28.1015,139.3228,0.0029417,0.00046813,0.0,0 STARLINK-3155,1 49739U 21115R   22024.58334491  .00046813  00000-0  29417-2 0  9996,2 49739  53.1955  75.9188 0002468  28.1015 139.3228 15.08817306  3591,6917.95,95.439,541.5219999999998,538.107,0.0
49739.0,STARLINK-3155,PAYLOAD,2022-01-24 22:00:00,15.08829376,0.0002232,53.1957,74.42,29.0468,149.9732,-0.00092076,-0.00014909,0.0,0 STARLINK-3155,1 49739U 21115R   22024.91667824 -.00014909  00000-0 -92076-3 0  9997,2 49739  53.1957  74.4200 0002232  29.0468 149.9732 15.08829376  3590,6917.913000000001,95.438,541.322,538.234,0.0
49739.0,STARLINK-3155,PAYLOAD,2022-01-25 08:00:01,15.0883306,0.0002346,53.1958,72.5496,29.0921,254.3974,-0.0012957,-0.00020847,0.0,0 STARLINK-3155,1 49739U 21115R   22025.33334491 -.00020847  00000-0 -12957-2 0  9992,2 49739  53.1958  72.5496 0002346  29.0921 254.3974 15.08833060  9395,6917.901999999999,95.438,541.39,538.144,0.0
49739.0,STARLINK-3155,PAYLOAD,2022-01-25 14:00:01,15.08802968,0.0002475,53.1958,71.4274,27.1314,175.0487,0.0030243,0.00048126,0.0,0 STARLINK-3155,1 49739U 21115R   22025.58334491  .00048126  00000-0  30243-2 0  9995,2 49739  53.1958  71.4274 0002475  27.1314 175.0487 15.08802968  3581,6917.994000000002,95.44,541.571,538.146,0.0
49739.0,STARLINK-3155,PAYLOAD,2022-01-25 22:00:00,15.08816948,0.0002254,53.1959,69.9286,29.5732,184.1901,0.0016465,0.00025997,0.0,0 STARLINK-3155,1 49739U 21115R   22025.91667824  .00025997  00000-0  16465-2 0  9992,2 49739  53.1959  69.9286 0002254  29.5732 184.1901 15.08816948  9471,6917.951,95.439,541.375,538.257,0.0
49739.0,STARLINK-3155,PAYLOAD,2022-01-26 14:00:01,15.08826274,0.0002501,53.1958,66.9363,28.7165,208.2397,0.0027397,0.00043569,0.0,0 STARLINK-3155,1 49739U 21115R   22026.58334491  .00043569  00000-0  27397-2 0  9998,2 49739  53.1958  66.9363 0002501  28.7165 208.2397 15.08826274  3596,6917.922,95.438,541.518,538.057,0.0
49739.0,STARLINK-3155,PAYLOAD,2022-01-26 22:00:00,15.08832746,0.0002285,53.1958,65.4374,31.3563,217.2068,0.0021521,0.00034123,0.0,0 STARLINK-3155,1 49739U 21115R   22026.91667824  .00034123  00000-0  21521-2 0  9993,2 49739  53.1958  65.4374 0002285  31.3563 217.2068 15.08832746  9630,6917.903,95.438,541.3480000000002,538.187,0.0
49739.0,STARLINK-3155,PAYLOAD,2022-01-27 04:00:00,15.08995038,0.0002308,53.205,64.2623,35.2897,131.9681,-0.026086,-0.0039497,0.0,0 STARLINK-3155,1 49739U 21115R   22027.16667824 -.00394970  00000-0 -26086-1 0  9992,2 49739  53.2050  64.2623 0002308  35.2897 131.9681 15.08995038  9667,6917.406999999997,95.428,540.868,537.675,0.0
49739.0,STARLINK-3155,PAYLOAD,2022-01-27 10:00:01,15.08864251,0.0002495,53.1958,63.1935,31.1368,54.9002,-0.0019877,-0.00031806,0.0,0 STARLINK-3155,1 49739U 21115R   22027.41668981 -.00031806  00000-0 -19877-2 0  9992,2 49739  53.1958  63.1935 0002495  31.1368  54.9002 15.08864251  3591,6917.806,95.436,541.3969999999998,537.945,0.0
49739.0,STARLINK-3155,PAYLOAD,2022-01-27 22:00:00,15.08813302,0.0002284,53.1954,60.9462,31.2621,252.1352,0.0025566,0.00040606,0.0,0 STARLINK-3155,1 49739U 21115R   22027.91667824  .00040606  00000-0  25566-2 0  9990,2 49739  53.1954  60.9462 0002284  31.2621 252.1352 15.08813302  9784,6917.962,95.439,541.4069999999998,538.247,0.0
49739.0,STARLINK-3155,PAYLOAD,2022-01-28 06:00:02,15.08811087,0.0002495,53.1955,59.4502,35.5336,259.4397,-0.0015347999999999,-0.00024614,0.0,0 STARLINK-3155,1 49739U 21115R   22028.25002315 -.00024614  00000-0 -15348-2 0  9996,2 49739  53.1955  59.4502 0002495  35.5336 259.4397 15.08811087  9830,6917.969,95.439,541.56,538.1080000000002,0.0
49739.0,STARLINK-3155,PAYLOAD,2022-01-28 12:00:00,15.08775803,0.000265,53.1955,58.3285,32.9813,180.6003,0.0031045,0.00049382,0.0,0 STARLINK-3155,1 49739U 21115R   22028.50001157  .00049382  00000-0  31045-2 0  9996,2 49739  53.1955  58.3285 0002650  32.9813 180.6003 15.08775803  3579,6918.0769999999975,95.442,541.775,538.1080000000002,0.0
49739.0,STARLINK-3155,PAYLOAD,2022-01-28 22:00:00,15.08796682,0.000242,53.1951,56.4552,34.968,283.0514,0.0041425,0.00066183,0.0,0 STARLINK-3155,1 49739U 21115R   22028.91667824  .00066183  00000-0  41425-2 0  9991,2 49739  53.1951  56.4552 0002420  34.9680 283.0514 15.08796682  9939,6918.013000000001,95.44,541.552,538.2040000000002,0.0
49739.0,STARLINK-3155,PAYLOAD,2022-01-29 14:00:01,15.0883874,0.0002691,53.1949,53.4627,32.2197,308.9719,0.0011235,0.00017638,0.0,0 STARLINK-3155,1 49739U 21115R   22029.58334491  .00017638  00000-0  11235-2 0  9993,2 49739  53.1949  53.4627 0002691  32.2197 308.9719 15.08838740 10039,6917.884,95.438,541.611,537.888,0.0
49739.0,STARLINK-3155,PAYLOAD,2022-01-29 22:00:00,15.0882539,0.0002524,53.195,51.9637,36.2752,316.5315,0.0032547,0.00051873,0.0,0 STARLINK-3155,1 49739U 21115R   22029.91667824  .00051873  00000-0  32547-2 0  9997,2 49739  53.1950  51.9637 0002524  36.2752 316.5315 15.08825390  3598,6917.925,95.438,541.536,538.044,0.0
49739.0,STARLINK-3155,PAYLOAD,2022-01-30 14:00:01,15.08866986,0.0002768,53.195,48.9708,32.7935,343.2418,-0.0019496,-0.00031208,0.0,0 STARLINK-3155,1 49739U 21115R   22030.58334491 -.00031208  00000-0 -19496-2 0  9993,2 49739  53.1950  48.9708 0002768  32.7935 343.2418 15.08866986  3606,6917.7980000000025,95.436,541.578,537.748,0.0
49739.0,STARLINK-3155,PAYLOAD,2022-01-30 22:00:00,15.08824008,0.0002549,53.1952,47.4718,35.354,352.3037,0.0025611,0.00040691,0.0,0 STARLINK-3155,1 49739U 21115R   22030.91667824  .00040691  00000-0  25611-2 0  9999,2 49739  53.1952  47.4718 0002549  35.3540 352.3037 15.08824008 10235,6917.929,95.439,541.558,538.031,0.0
49739.0,STARLINK-3155,PAYLOAD,2022-01-31 14:00:01,15.08832346,0.0002795,53.1953,44.4789,32.0025,18.9022,0.00030599,4.584e-05,0.0,0 STARLINK-3155,1 49739U 21115R   22031.58335648  .00004584  00000-0  30599-3 0  9992,2 49739  53.1953  44.4789 0002795  32.0025  18.9022 15.08832346 10330,6917.904,95.438,541.702,537.835,0.0
49739.0,STARLINK-3155,PAYLOAD,2022-01-31 22:00:01,15.08814092,0.0002598,53.1956,42.98,35.9867,26.5177,0.0032565,0.00051886,0.0,0 STARLINK-3155,1 49739U 21115R   22031.91668981  .00051886  00000-0  32565-2 0  9999,2 49739  53.1956  42.9800 0002598  35.9867  26.5177 15.08814092  3591,6917.96,95.439,541.622,538.0269999999998,0.0
49739.0,STARLINK-3155,PAYLOAD,2022-02-01 14:00:01,15.08867126,0.0002822,53.1956,39.9869,33.183,52.5182,-0.002975,-0.00047364,0.0,0 STARLINK-3155,1 49739U 21115R   22032.58335648 -.00047364  00000-0 -29750-2 0  9994,2 49739  53.1956  39.9869 0002822  33.1830  52.5182 15.08867126  3571,6917.797,95.436,541.615,537.71,0.0
49739.0,STARLINK-3155,PAYLOAD,2022-02-01 22:00:00,15.08812221,0.0002574,53.1959,38.4882,35.9525,61.3024,0.0030612,0.00048733,0.0,0 STARLINK-3155,1 49739U 21115R   22032.91667824  .00048733  00000-0  30612-2 0  9993,2 49739  53.1959  38.4882 0002574  35.9525  61.3024 15.08812221 10531,6917.965,95.439,541.611,538.05,0.0
49739.0,STARLINK-3155,PAYLOAD,2022-02-02 14:00:01,15.08824082,0.0002758,53.1958,35.4953,32.398,88.0187,-0.00064576,-0.00010547,0.0,0 STARLINK-3155,1 49739U 21115R   22033.58334491 -.00010547  00000-0 -64576-3 0  9999,2 49739  53.1958  35.4953 0002758  32.3980  88.0187 15.08824082 10631,6917.929,95.439,541.702,537.886,0.0
49739.0,STARLINK-3155,PAYLOAD,2022-02-02 22:00:00,15.08804126,0.0002546,53.1961,33.9968,36.4694,95.5272,0.0026863,0.00042683,0.0,0 STARLINK-3155,1 49739U 21115R   22033.91667824  .00042683  00000-0  26863-2 0  9995,2 49739  53.1961  33.9968 0002546  36.4694  95.5272 15.08804126  3600,6917.99,95.44,541.616,538.094,0.0
49739.0,STARLINK-3155,PAYLOAD,2022-02-03 14:00:01,15.08845593,0.0002774,53.1969,31.0039,35.0365,120.1159,-0.0010387,-0.00016785,0.0,0 STARLINK-3155,1 49739U 21115R   22034.58334491 -.00016785  00000-0 -10387-2 0  9990,2 49739  53.1969  31.0039 0002774  35.0365 120.1159 15.08845593 10788,6917.863,95.437,541.6469999999998,537.809,0.0
49739.0,STARLINK-3155,PAYLOAD,2022-02-03 22:00:01,15.08827353,0.0002592,53.1981,29.5054,39.4232,127.3954,0.0024268,0.00038534,0.0,0 STARLINK-3155,1 49739U 21115R   22034.91668981  .00038534  00000-0  24268-2 0  9998,2 49739  53.1981  29.5054 0002592  39.4232 127.3954 15.08827353  3609,6917.919,95.438,541.577,537.991,0.0
49739.0,STARLINK-3155,PAYLOAD,2022-02-04 06:00:00,15.08860468,0.0002786,53.1983,28.0101,37.7316,140.6379,-0.00058555,-9.602e-05,0.0,0 STARLINK-3155,1 49739U 21115R   22035.25001157 -.00009602  00000-0 -58555-3 0  9995,2 49739  53.1983  28.0101 0002786  37.7316 140.6379 15.08860468 10888,6917.818,95.436,541.61,537.756,0.0
